          0.005      -12345.00      -12345.00      -12345.00      -12345.00
          0.005           60.0      -12345.00      -12345.00      -12345.00
      -12345.00      -12345.00      -12345.00      -12345.00      -12345.00
      -12345.00      -12345.00      -12345.00      -12345.00      -12345.00
      -12345.00      -12345.00      -12345.00      -12345.00      -12345.00
      -12345.00      -12345.00      -12345.00      -12345.00      -12345.00
      -12345.00           30.4          102.8      -12345.00      -12345.00
           30.3          103.0      -12345.00          13.00            7.0
      -12345.00      -12345.00      -12345.00      -12345.00      -12345.00
      -12345.00      -12345.00      -12345.00      -12345.00      -12345.00
      -12345.00      -12345.00      -12345.00      -12345.00      -12345.00
      -12345.00      -12345.00           90.0           90.0      -12345.00
      -12345.00      -12345.00      -12345.00      -12345.00      -12345.00
      -12345.00      -12345.00      -12345.00      -12345.00      -12345.00
     20130       110         8         2        46
         0         6    -12345    -12345     12000
    -12345    -12345    -12345    -12345    -12345
         1         8    -12345    -12345    -12345
    -12345    -12345    -12345    -12345    -12345
        53    -12345    -12345    -12345    -12345
    -12345    -12345    -12345    -12345    -12345
         1    -12345         1    -12345    -12345
51BXD   LUSHAN  
-12345  -12345  -12345  
-12345  -12345  -12345  
-12345  -12345  -12345  
-12345  -12345  -12345  
-12345  -12345  -12345  
-12345  -12345  -12345  
-12345  -12345  MR2002/SLJ-100
[...]
      -16.49167      -17.61069      -15.09098      -15.90901      -12.24328
      0.1392113      -5.363258      -11.44067      -4.664838      -2.461535
       1.991376       9.905517       10.69269      -1.095565      -13.14235
      -16.26401      -16.18684      -14.44658      -9.526768       4.333591
       10.87404      -4.309841      -17.28656      -15.40739      -16.71162
      -16.44537      -2.696915       11.73067       26.21999       33.94506
       31.81507       30.82339       28.14547       28.28438       27.28499
        26.0695       26.06179       9.666278      -12.24713      -26.44706
       -32.2505      -26.96798      -17.17466      -8.106776      -9.418726
      -14.64723      -8.828349      -4.001147      -8.322862      -7.524116
      0.5906762      -10.22519      -28.55775      -20.11497      -12.82979
      -21.61985       -25.0232      -24.89201      -10.77312       14.64783
       19.78758       13.82593       19.18563       20.21975       19.01971
       34.34636        42.1949       37.29439       38.28607       33.66338
       34.40038       35.85124       4.329731      -27.39243       -33.4274
       -36.4989      -41.83545      -59.64709      -75.60271      -65.44668
      -51.66735      -41.02898      -32.42028      -24.09326      -4.444894
       16.69292       39.78323       57.37493       63.51022       72.32729
       70.47127       55.10217       46.22722       29.94747      -1.234477
      -23.42957      -37.32466      -43.47924      -44.30886      -50.24736
       -50.0197      -57.76406      -67.85835      -59.29596      -53.88609
      -40.54665      -4.587665       18.00873       19.57921       29.87416
       27.37374       6.641078       12.50626       25.67978       24.71125
       11.39882      -4.695708       3.530987       13.76805         11.121
        4.68473      -2.129689        10.0097       36.60754       59.01873
       75.63804       75.78852        72.3736       92.26892       113.0132
       120.4643       120.6263       103.7639       68.16378       18.25955
       -39.8984      -96.55531      -138.2792      -154.5666      -146.7682
       -116.196      -76.01559      -63.86462      -61.77708      -37.32852
      -21.40377    -0.02285298       30.08253       32.66012       23.89321
       11.73453       10.60394       31.18996       44.29788       47.48901
       38.10471       15.59706       12.46768       17.40678      -14.31924
      -71.75947      -111.4537      -120.3286      -109.5475      -106.6998
      -113.0936      -85.64684      -38.58644      -15.15272      -5.154891
       6.752979       25.66434       52.97218       85.84423       120.0668
       120.5067       79.20345       52.24289       49.82736       42.17947
       31.25171       16.82798      -8.650849      -16.67689       2.060831
      0.7218708      -10.97377      -5.015978     -0.4588835      0.5405132
       8.462373       19.91492       15.61635        17.1251        30.7848
       28.23422       19.28209        2.00681      -4.792175      -8.797479
       -17.7033       -9.02514      -17.07048      -28.30694      -38.81411
      -47.51156      -36.72271      -27.98281      -11.80339      -19.14644
      -39.79035      -38.31634       -44.3706      -50.54062      -57.88754
      -76.71786      -83.79854      -60.51143      -43.70305      -58.32743
      -62.78806      -54.53821      -36.68026      -10.10943       7.513138
       13.67158       16.77396        39.0115        46.2388       59.06503
       102.8108       119.3298       130.7322         128.88       120.4836
       126.3603       86.80504       30.57644      -16.88912      -70.55556
      -111.1064      -129.1071      -135.0456      -141.1963      -131.4223
      -92.76609      -42.36409    -0.02671195       31.68002       41.53507
       57.32477       98.97916       116.5516        119.106       131.2994
       134.0699       126.3873       102.1163       58.20069       19.44802
      -28.83943      -81.79202      -89.81421      -100.0937      -127.5713
      -125.0516      -111.4575      -85.64684      -41.61551      -3.557399
       29.61949       72.89066       102.6912       99.22611       67.18754
       16.55401      -2.446101      -5.664235      -30.90768      -43.53713
      -43.94229       -28.0021      -1.126434      -4.803751      -16.77722
      -14.74755      -3.742615       28.34998       43.89272       22.20311
       16.88586        26.7139       19.98823       3.168271       6.969065
        30.4954       42.21806       61.50757       70.56774        57.8727
        53.3349       33.28137       10.09073       2.959903       -17.6377
      -58.37759      -91.87088      -114.8068      -132.6262      -111.7469
      -59.34226      -2.083385       54.39217       94.90826       110.3622
       87.55363       66.24603       85.97543       99.49622       88.45269
       75.61103       56.03983       22.44235      -21.83208      -64.95663
      -84.23071      -102.1735      -129.6164      -122.7519      -105.6618
       -98.9747      -80.16752      -53.43848      -16.88526       18.68786
       54.10278       82.59137       77.43618       60.98665       58.04634
       59.95252       34.26147       7.775528       37.87705       69.82301
       66.56244       53.12267       31.47551       10.63866      -8.592969
      -26.30043      -47.33406      -56.09711      -37.07771        -10.831
       29.60405       46.30053       16.61575       3.322617      -1.496867
      -28.90117      -50.31682      -37.05841      -11.29018      -4.309841
      -6.250754      -19.03068      -22.23724      -23.83473      -49.24411
      -64.93733      -78.07998      -90.03801      -84.01463      -50.39785
      -7.855962       17.70776       50.41002       66.96374       71.27773
       69.47573       42.27594       25.69135       4.985707      -18.20107
      -13.95267      -12.44778      -18.20107      -4.880924       24.40256
        53.8018       38.27063      -4.414025      -14.72826      -36.71499
      -45.55135      -35.92782      -50.84159      -28.84715        9.19552
       26.57113       40.62057       39.26617       3.669899      -28.48444
      -29.46454      -59.52748      -89.13509      -78.73981      -50.14318
     -0.8910543       30.45296       41.33442       63.71859       79.61633
       82.59523       89.29002       90.81034       81.88523       82.69555
       93.97446       96.95721       98.14183       89.38649       48.49226
       4.186961      -30.51796      -59.82073      -96.77525      -148.4583
      -150.0713      -91.39627      -30.75334       3.430661      0.4864921
      -14.64723      -30.55654      -64.68266        -96.837      -119.1093
       -132.931      -125.7462      -108.9224      -95.45944      -68.30209
      -19.11557       4.966413       8.616719       30.02465       50.99654
       88.79997       136.3736       171.9043       221.7892        252.512
       251.4508       244.4088       215.4455       160.7295       95.53336
       47.72438       5.618529      -54.82375      -111.9051      -157.6844
      -173.5822      -157.1905      -157.8272      -171.6297      -153.3627
       -119.499      -100.7111      -82.07757      -47.59645      -7.180695
       23.79675       47.63178       68.56895       98.00291       136.3851
       153.7415       125.8201       78.01884       45.32815      0.4208947
      -51.40882      -88.84568      -106.2908      -82.69495      -51.13872
      -43.78408      -60.09856      -63.91479      -40.60839      -35.72717
       -30.2054       11.90431       67.50395       106.2836       133.4834
       158.3835       140.1049       97.80226       65.80228       5.012717
      -47.38422      -96.02668      -182.9588      -240.4376      -235.8496
      -168.4154      -92.73908      -60.62333       -15.9013       37.22107
       84.96445       154.8759       186.9801       172.5216       189.8124
       209.4067       186.1003       153.2283       122.4823       89.97301
       53.94071       -16.3026      -104.4193      -164.8307      -204.2355
      -181.6661         -111.5      -55.95049      -1.763115      -6.806403
      -59.55449      -74.89658      -54.23337      -42.85799      -70.36263
      -76.33971      -61.73077       -54.5575      -40.73959      -32.15018
      -18.98438      -24.61419      -38.80253      -44.73331      -66.66988
      -83.28919      -85.90537      -65.04152      -10.51459       57.44053
       121.8881       167.8719       187.5743       194.7901       213.4159
       219.8213       180.2313       131.0563        98.8634       69.00497
       54.96326       69.05514       91.25409       113.6344       140.1049
       164.6384       185.6488       190.1596       188.5274       203.7036
       208.2452       189.6233       162.3386       131.2493       97.54373
       77.88379       70.20116       52.49757       45.73331       34.11098
      -15.07554      -93.36033      -168.5235      -212.6744      -253.5455
      -280.7607      -297.2643      -319.7603      -317.2252      -315.6084
      -300.5827      -253.0207      -220.5577      -176.9701      -103.8752
      -41.57692       15.22277       77.67542       146.2402       206.7789
       268.0779       351.0857         370.68       328.4005       278.7123
       204.5834       107.0168      -65.89043      -241.8035      -352.4395
      -448.6131      -471.4063      -422.4243      -316.0251      -182.3915
      -108.2124        -52.223      -20.33492      -16.51869        26.9107
        79.9829       126.1249       162.9328       175.8787       198.1008
       205.6484        187.146       174.1075       141.2085        115.228
       155.5589       190.0863       129.8331       42.15246      0.5405132
      -22.60767      -62.02018      -114.4711      -147.2351      -153.7987
      -166.8372      -184.6566      -197.1857      -217.1119      -203.5178
       -182.515      -182.4031      -131.4686      -74.58788      -67.15607
      -55.21733       -18.2358       32.54822       82.66082       96.49803
       125.5384        191.051       232.7555       253.6541       252.0528
       285.9551       340.6402       324.7078       286.8619       258.3578
       217.7723       159.8112       107.7731       89.72606       93.14484
       85.18054       47.88645        31.7842       35.26472       6.316949
      -25.78722      -53.90924      -59.19563      -17.12836       62.43751
        162.354       222.3564       264.2115       276.5168       232.9523
       210.6724       178.5026       137.7666       120.4681       49.39905
      -38.45911      -101.8378      -142.8941       -151.908      -197.6526
      -248.1433      -270.8516      -295.4777      -298.5338      -312.4404
      -360.4809      -404.9135      -415.0271      -425.0674      -447.2934
      -434.2163      -426.4797      -436.5122      -421.6757      -414.9075
      -393.7774      -340.0029      -282.3929       -177.028       -65.5007
       6.093146        63.2131       101.9658       150.7278       206.9294
        249.506       284.4155       294.0776       253.0483         229.85
       243.0775       187.9679       114.2634       78.70568       67.95927
       89.71062       93.91657       77.51335       62.90441       80.53084
       131.7817       187.0457       256.0774       308.4627       316.7126
       251.4161       148.2814       84.59788       13.55968      -98.73161
      -223.2549      -299.3016      -305.9772      -305.6299      -291.7927
      -245.9285      -157.1326      -27.51977       36.15608       53.64745
       97.93346       119.1099       138.7389       164.8197       169.5466
        152.634       145.3488       159.5642         156.62       161.3817
       121.4444       35.55027      -78.03754      -236.4361      -406.4416
      -496.8272      -343.7343      -205.0883       -176.507       2.975337
       144.4613        172.703       224.1546       228.4493       181.7709
       144.9244       125.3223       101.3214       38.35938      -47.96303
      -73.69653      -52.78251       -70.3935      -76.13135      -44.79505
      -67.34901      -162.2917      -238.3539      -294.8294      -337.2672
      -304.4298       -271.114      -177.8807       10.28367       180.6287
       374.3226       486.8608       482.3925       423.8294        410.926
       455.1078       297.7511       170.4341       80.94371      -174.9327
      -384.1423      -526.6779      -599.1708      -695.3946       -663.738
      -474.1344      -438.3644      -359.6745      -237.4278      -172.4091
      -46.73597       32.50577       91.76344       156.8053        205.359
       339.7643       459.3523       522.8738       504.1284       479.8535
       618.8545       645.4292       521.3149       351.2824       195.3804
       102.6681      -26.70173       -246.187      -776.1759       -1005.35
      -858.0917      -893.8154      -684.8218      -520.6353      -471.9388
      -200.1144       7.169716        62.7192       39.19672       74.56918
       95.76874       68.49949         64.035       94.74619        47.7321
      -58.41618        6.81086       90.15437       163.0795       195.9631
       152.1093       211.8492       271.8015       269.2856       179.9843
       128.5057       200.9485       162.7708       143.7745       120.0244
      -14.99065      -108.3281      -366.0721       -538.551      -504.7413
      -551.0146      -382.8265      -160.9875      -7.724767       184.5607
       198.3362         250.49       269.4207       91.78273       3.596583
      -12.10822      -65.02995       -125.341      -152.6643      -125.5455
      -86.17162      -35.19081       66.58945       179.1315       275.2241
       334.1075       242.4717       190.0555       296.9755        300.757
       226.0569       184.4064       137.6431       61.26833      -8.716448
      -12.85295       22.31501       99.14894       150.8745       152.3292
       184.6379       237.9802       299.7498       299.2868       202.9048
       121.1588       69.02427       23.22952      -24.52929      -83.64805
      -114.8261      -152.8071      -174.9134       -176.862      -253.5108
      -318.7802      -375.6185      -445.0361      -340.1727      -184.6373
      -85.16064       50.00872       139.0669       197.7574       282.1697
       318.7268       167.5787       4.067341       25.28234       70.10856
       64.32826       2.689795      -14.66652      -8.801337        -5.6488
       72.67458       87.83916        66.4621       60.41943       70.93431
       131.4075       123.6284       31.40219      -10.85415         67.994
       148.3162       81.39132      -20.97545      -39.90226       -41.5036
      -49.75345      -115.0847      -197.2667      -181.4037      -135.8829
      -104.8399      -72.23409      -60.11399      -39.39291       41.43861
       107.4335       138.2566       189.4419       213.5895       212.6673
       178.3135       107.9776       54.86679      -40.33829      -196.1168
      -293.9496      -314.3852      -338.4363      -386.0794      -382.3751
      -307.1502      -271.5423      -258.5463      -184.6913      -111.3032
      -79.98616      -49.27497       -34.3419      -17.12836       28.30754
       61.96675       104.5164       125.3378       146.3753       219.7364
       339.0196       356.3682       192.7835       235.7576       394.3298
       305.3141       221.5152       200.6282       103.9337       51.86088
      -21.64301      -132.0976      -256.5784      -392.4886      -331.5023
      -305.1553      -210.8763      -130.4113      -314.2193      -184.5871
      -133.0237      -251.3113      -139.0625      -143.4151       -132.387
       -97.8827      -110.6202      -82.45186      -79.96301      -57.21999
      -2.496263       92.72039       145.6961       179.2357       268.2052
       302.4278        292.646       295.8487       303.8362       311.5612
         304.77       287.8034       270.0149       260.4415       240.2568
       211.0351        211.255       184.7266       72.78262      -32.77142
      -141.6516      -300.8374      -487.8133      -678.5823      -690.1005
      -652.6482      -674.9822      -530.6022      -325.2088      -143.4575
        49.0672       193.2543       256.7256       329.5427       406.9709
       382.2175       448.5133       427.8308       194.9019       185.9344
       275.1855       147.9496       37.62624       65.60162      -35.91238
      -239.0407      -325.2281      -393.3838      -490.9196      -463.2451
      -406.6615      -457.0636      -405.1489      -272.2215      -168.2302
       -81.2248      -47.82797       5.367715       33.39327       54.63527
        121.564       223.5989       259.0293       137.3074       155.2734
       125.4381      -119.2713      -67.21781      -57.66759      -338.2125
      -333.4316      -196.5143      -198.5748        -122.64      -4.055168
       7.613463       40.82122       117.8982       135.3935       201.4385
       346.0231       439.5265       380.3537       311.6654       346.9762
       312.8925       208.8974       194.2498       212.8371       121.7531
         76.977       52.94903      -89.98785      -199.8096      -211.6789
      -21.63143       118.0063       150.2648       275.9804       214.8667
       185.0237       270.4201       215.0597       194.5971        236.703
       231.5324       173.6175       120.6572       79.90959       9.045033
      -39.52024      -68.02041      -112.5457      -146.9496      -177.7071
       -135.798      -57.30873       -79.9553      -109.0536      -75.98858
      -73.61935      -101.1973      -89.91068      -62.51409      -10.90817
       37.49118       94.01691       184.0398       162.5933       38.39411
      -106.4374      -154.2464      -196.1554      -374.0558      -340.4853
      -227.8621      -375.4372      -467.3662      -441.8874      -443.3421
      -450.1642      -452.2364      -338.6254      -257.8904      -272.1752
      -150.5806      -45.37771      -53.14523       19.00041       132.0403
       219.2347       306.7803       387.0485       430.4702       399.4966
       433.4028       481.7906       453.8499       430.1615       264.3002
       122.7486       102.5716      -31.95724      -161.8904      -176.1366
      -245.6352      -261.8918       -14.2575       132.2525       194.2112
